OBJECT_NAME,OBJECT_ID,EPOCH,MEAN_MOTION,ECCENTRICITY,INCLINATION,RA_OF_ASC_NODE,ARG_OF_PERICENTER,MEAN_ANOMALY,EPHEMERIS_TYPE,CLASSIFICATION_TYPE,NORAD_CAT_ID,ELEMENT_SET_NO,REV_AT_EPOCH,BSTAR,MEAN_MOTION_DOT,MEAN_MOTION_DDOT
STARLINK-36548,2026-020A,2026-07-11T22:43:38.492256,15.27582396,.00031178,43.0070,158.3616,293.8078,66.2447,0,U,67617,999,2511,.38417733E-3,.10325E-3,0
STARLINK-36601,2026-020B,2026-07-11T08:15:52.201152,15.27596652,.00007683,42.9935,161.5544,338.4894,21.5925,0,U,67618,999,2502,.40375291E-3,.10871E-3,0
STARLINK-36119,2026-020C,2026-07-11T22:34:23.132064,15.27593046,.00009903,43.0002,158.3017,248.8927,111.1819,0,U,67619,999,2511,.44283454E-3,.11948E-3,0
STARLINK-36607,2026-020D,2026-07-11T05:51:44.186688,15.27562141,.00014074,43.0025,161.6603,286.9497,73.1201,0,U,67620,999,2501,-.94894928E-4,-.2871E-4,0
STARLINK-36615,2026-020E,2026-07-11T22:47:20.034816,15.27581860,.00003239,43.0000,158.3554,208.3923,151.6911,0,U,67621,999,2511,.37545114E-3,.10084E-3,0
STARLINK-36614,2026-020F,2026-07-11T08:12:09.002304,15.27544042,.0001716,42.9961,161.5433,253.1068,106.9595,0,U,67622,999,2502,-.89753586E-3,-.24851E-3,0
STARLINK-36600,2026-020G,2026-07-11T06:47:15.619488,15.27604511,.00022466,43.0012,161.9680,272.7385,87.3209,0,U,67623,999,2501,.41417646E-3,.11161E-3,0
STARLINK-36439,2026-020H,2026-07-11T07:57:22.005216,15.27588444,.00008786,42.9992,161.4670,262.2888,97.7864,0,U,67624,999,2502,.33936085E-3,.909E-4,0
STARLINK-36438,2026-020J,2026-07-11T22:15:52.849728,15.27588044,.00000618,42.9951,158.2009,116.1280,243.9578,0,U,67625,999,2511,.57976735E-3,.1573E-3,0
STARLINK-36436,2026-020K,2026-07-11T07:37:00.809472,15.27579821,.00015906,42.9998,161.3505,262.6371,97.4300,0,U,67626,999,2502,.19225694E-3,.5032E-4,0
STARLINK-36502,2026-020L,2026-07-11T09:25:58.543680,15.27580278,.00013531,42.9991,161.0695,262.9968,97.0729,0,U,67627,999,2503,.15424487E-3,.3985E-4,0
STARLINK-36532,2026-020M,2026-07-11T07:44:24.692064,15.27584139,.00012751,43.0007,161.3850,267.1720,92.8986,0,U,67628,999,2502,.30172042E-3,.8051E-4,0
STARLINK-36367,2026-020N,2026-07-11T21:42:35.712864,15.27568542,.00011056,42.9985,158.0188,280.2842,79.7885,0,U,67629,999,2511,.57626129E-3,.15623E-3,0
STARLINK-36416,2026-020P,2026-07-11T19:02:00.568896,15.27588995,.0002164,43.0008,158.9011,267.5227,92.5376,0,U,67630,999,2509,.34330848E-3,.9199E-4,0
STARLINK-36527,2026-020Q,2026-07-11T08:49:10.842240,15.27581087,.0001223,43.0020,161.7368,264.1510,95.9202,0,U,67631,999,2502,.24032536E-3,.6357E-4,0
STARLINK-36633,2026-020R,2026-07-11T06:54:40.550112,15.27587745,.00014878,43.0027,161.9975,16.0212,344.0686,0,U,67632,999,2501,.32188055E-3,.8608E-4,0
STARLINK-36637,2026-020S,2026-07-11T20:34:20.293248,15.27593056,.00031704,42.9989,158.5241,37.1857,322.9213,0,U,67633,999,2510,.45676315E-3,.12334E-3,0
STARLINK-36617,2026-020T,2026-07-11T23:00:17.472384,15.27585848,.00015718,43.0035,158.4320,270.3546,89.7125,0,U,67634,999,2511,.30929382E-3,.826E-4,0
STARLINK-36627,2026-020U,2026-07-11T06:15:48.568320,15.27579607,.00013609,42.9980,161.7926,265.2926,94.7771,0,U,67635,999,2501,.29351378E-3,.7823E-4,0
STARLINK-36624,2026-020V,2026-07-11T21:31:29.198208,15.27572971,.00012952,43.0029,157.9528,266.0557,94.0147,0,U,67636,999,2511,.35226761E-3,.9442E-4,0
STARLINK-36610,2026-020W,2026-07-11T22:02:55.578912,15.27610972,.00015183,42.9991,158.1221,263.0087,97.0592,0,U,67637,999,2511,.72415823E-3,.19737E-3,0
STARLINK-36599,2026-020X,2026-07-11T07:13:09.670368,15.27586901,.0002022,42.9996,162.0884,245.1962,114.8679,0,U,67638,999,2501,.33229279E-3,.8895E-4,0
STARLINK-36595,2026-020Y,2026-07-11T19:05:42.975456,15.27594873,.00015244,42.9873,158.9201,40.4360,319.6605,0,U,67639,999,2509,.32284983E-3,.8637E-4,0
STARLINK-36570,2026-020Z,2026-07-11T23:22:16.550688,15.27590224,.00014617,42.9995,157.6766,265.8136,94.2548,0,U,67640,999,2512,.44535217E-3,.12017E-3,0
STARLINK-36514,2026-020AA,2026-07-11T07:09:27.815040,15.27589061,.00014661,43.0027,162.0641,268.0274,92.0409,0,U,67641,999,2501,.30867599E-3,.8244E-4,0
STARLINK-36556,2026-020AB,2026-07-11T07:03:54.979776,15.27593774,.00004645,42.9993,162.0425,281.9311,78.1488,0,U,67642,999,2501,.33092882E-3,.8859E-4,0
STARLINK-36533,2026-020AC,2026-07-11T07:46:16.077216,15.27579548,.00014797,42.9997,161.4045,267.9577,92.1105,0,U,67643,999,2502,.36352347E-3,.9754E-4,0
STARLINK-36623,2026-020AD,2026-07-10T18:58:12.860832,15.27597856,.0002202,43.0044,164.2813,291.7561,68.3056,0,U,67644,999,2494,.58215837E-3,.15801E-3,0
STARLINK-36619,2026-020AE,2026-07-11T09:03:46.085472,15.27600674,.00012865,43.0006,160.9394,274.0348,86.0357,0,U,67645,999,2503,.58749231E-3,.1595E-3,0
ALSAT-3B,2026-021A,2026-07-11T18:56:55.052448,15.23076718,.00139993,97.4584,266.4041,82.1127,278.1698,0,U,67646,999,2461,.13688259E-3,.3162E-4,0
