STARLINK-36548          
1 67617U 26020A   26192.94697329  .00010325  00000+0  38418-3 0  9993
2 67617  43.0070 158.3616 0003117 293.8078  66.2447 15.27582396 25118
STARLINK-36601          
1 67618U 26020B   26192.34435418  .00010871  00000+0  40375-3 0  9998
2 67618  42.9935 161.5544 0000768 338.4894  21.5925 15.27596652 25029
STARLINK-36119          
1 67619U 26020C   26192.94054551  .00011948  00000+0  44283-3 0  9998
2 67619  43.0002 158.3017 0000990 248.8927 111.1819 15.27593046 25116
STARLINK-36607          
1 67620U 26020D   26192.24426142 -.00002871  00000+0 -94895-4 0  9994
2 67620  43.0025 161.6603 0001407 286.9497  73.1201 15.27562141 25013
STARLINK-36615          
1 67621U 26020E   26192.94953744  .00010084  00000+0  37545-3 0  9996
2 67621  43.0000 158.3554 0000323 208.3923 151.6911 15.27581860 25113
STARLINK-36614          
1 67622U 26020F   26192.34177086 -.00024851  00000+0 -89754-3 0  9996
2 67622  42.9961 161.5433 0001716 253.1068 106.9595 15.27544042 25027
STARLINK-36600          
1 67623U 26020G   26192.28281967  .00011161  00000+0  41418-3 0  9997
2 67623  43.0012 161.9680 0002246 272.7385  87.3209 15.27604511 25014
STARLINK-36439          
1 67624U 26020H   26192.33150469  .00009090  00000+0  33936-3 0  9990
2 67624  42.9992 161.4670 0000878 262.2888  97.7864 15.27588444 25024
STARLINK-36438          
1 67625U 26020J   26192.92769502  .00015730  00000+0  57977-3 0  9999
2 67625  42.9951 158.2009 0000061 116.1280 243.9578 15.27588044 25110
STARLINK-36436          
1 67626U 26020K   26192.31737048  .00005032  00000+0  19226-3 0  9992
2 67626  42.9998 161.3505 0001590 262.6371  97.4300 15.27579821 25022
STARLINK-36502          
1 67627U 26020L   26192.39303870  .00003985  00000+0  15424-3 0  9994
2 67627  42.9991 161.0695 0001353 262.9968  97.0729 15.27580278 25035
STARLINK-36532          
1 67628U 26020M   26192.32250801  .00008051  00000+0  30172-3 0  9999
2 67628  43.0007 161.3850 0001275 267.1720  92.8986 15.27584139 25025
STARLINK-36367          
1 67629U 26020N   26192.90458001  .00015623  00000+0  57626-3 0  9992
2 67629  42.9985 158.0188 0001105 280.2842  79.7885 15.27568542 25111
STARLINK-36416          
1 67630U 26020P   26192.79306214  .00009199  00000+0  34331-3 0  9998
2 67630  43.0008 158.9011 0002164 267.5227  92.5376 15.27588995 25095
STARLINK-36527          
1 67631U 26020Q   26192.36748660  .00006357  00000+0  24033-3 0  9998
2 67631  43.0020 161.7368 0001223 264.1510  95.9202 15.27581087 25023
STARLINK-36633          
1 67632U 26020R   26192.28796933  .00008608  00000+0  32188-3 0  9997
2 67632  43.0027 161.9975 0001487  16.0212 344.0686 15.27587745 25012
STARLINK-36637          
1 67633U 26020S   26192.85717932  .00012334  00000+0  45676-3 0  9990
2 67633  42.9989 158.5241 0003170  37.1857 322.9213 15.27593056 25109
STARLINK-36617          
1 67634U 26020T   26192.95853556  .00008260  00000+0  30929-3 0  9993
2 67634  43.0035 158.4320 0001571 270.3546  89.7125 15.27585848 25111
STARLINK-36627          
1 67635U 26020U   26192.26097880  .00007823  00000+0  29351-3 0  9999
2 67635  42.9980 161.7926 0001360 265.2926  94.7771 15.27579607 25017
STARLINK-36624          
1 67636U 26020V   26192.89686572  .00009442  00000+0  35227-3 0  9999
2 67636  43.0029 157.9528 0001295 266.0557  94.0147 15.27572971 25113
STARLINK-36610          
1 67637U 26020W   26192.91869883  .00019737  00000+0  72416-3 0  9990
2 67637  42.9991 158.1221 0001518 263.0087  97.0592 15.27610972 25117
STARLINK-36599          
1 67638U 26020X   26192.30080637  .00008895  00000+0  33229-3 0  9998
2 67638  42.9996 162.0884 0002022 245.1962 114.8679 15.27586901 25013
STARLINK-36595          
1 67639U 26020Y   26192.79563629  .00008637  00000+0  32285-3 0  9994
2 67639  42.9873 158.9201 0001524  40.4360 319.6605 15.27594873 25098
STARLINK-36570          
1 67640U 26020Z   26192.97380267  .00012017  00000+0  44535-3 0  9999
2 67640  42.9995 157.6766 0001461 265.8136  94.2548 15.27590224 25123
STARLINK-36514          
1 67641U 26020AA  26192.29823860  .00008244  00000+0  30868-3 0  9997
2 67641  43.0027 162.0641 0001466 268.0274  92.0409 15.27589061 25014
STARLINK-36556          
1 67642U 26020AB  26192.29438634  .00008859  00000+0  33093-3 0  9994
2 67642  42.9993 162.0425 0000464 281.9311  78.1488 15.27593774 25016
STARLINK-36533          
1 67643U 26020AC  26192.32379719  .00009754  00000+0  36352-3 0  9993
2 67643  42.9997 161.4045 0001479 267.9577  92.1105 15.27579548 25023
STARLINK-36623          
1 67644U 26020AD  26191.79042663  .00015801  00000+0  58216-3 0  9992
2 67644  43.0044 164.2813 0002202 291.7561  68.3056 15.27597856 24948
STARLINK-36619          
1 67645U 26020AE  26192.37761673  .00015950  00000+0  58749-3 0  9993
2 67645  43.0006 160.9394 0001286 274.0348  86.0357 15.27600674 25037
ALSAT-3B                
1 67646U 26021A   26192.78952607  .00003162  00000+0  13688-3 0  9994
2 67646  97.4584 266.4041 0013999  82.1127 278.1698 15.23076718 24617
